ORBVIEW 2 (SEASTAR)     
1 24883U 97037A   25331.85875349  .00000352  00000+0  13901-3 0  9990
2 24883  98.8451 128.5593 0002385  26.0106 334.1198 14.35399727493867
SL-16 R/B               
1 25400U 98043G   25331.85329765  .00000106  00000+0  63427-4 0  9996
2 25400  98.8102 279.5899 0009052 314.8477  45.1967 14.26019937424475
SL-16 R/B               
1 25407U 98045B   25331.93159376  .00000307  00000+0  17921-3 0  9993
2 25407  71.0127  35.5680 0007821 198.0267 162.0580 14.16172203412697
ISS (ZARYA)             
1 25544U 98067A   25331.89930487  .00004025  00000+0  80753-4 0  9999
2 25544  51.6314 215.9428 0003868 177.5993 182.5015 15.49155559540559
CZ-4B R/B               
1 25732U 99025C   25331.88518558  .00000094  00000+0  66362-4 0  9995
2 25732  98.6791  13.4959 0036044 277.8699 255.3465 14.18238038373738
OKEAN-O                 
1 25860U 99039A   25331.91708477  .00000899  00000+0  12534-3 0  9991
2 25860  97.9623  27.7457 0000993  72.0153 288.1167 14.80122470419332
SL-16 R/B               
1 25861U 99039B   25331.72382069  .00000716  00000+0  97986-4 0  9999
2 25861  98.0147  25.8727 0013868 224.5649 135.4449 14.81552908421765
DELTA 2 R/B             
1 25876U 99041E   25331.77198993  .00000910  00000+0  18656-3 0  9996
2 25876  51.7622 348.1935 0504896  47.6586 316.5982 14.11341757348636
HELIOS 1B               
1 25977U 99064A   25331.59822560  .00002477  00000+0  28178-3 0  9997
2 25977  98.1748 225.8156 0002314  62.5499 297.5951 14.87186225670086
TERRA                   
1 25994U 99068A   25332.01902961  .00000598  00000+0  13127-3 0  9992
2 25994  97.9769  24.2419 0003235 127.7202 348.0137 14.60926655380230
SL-16 R/B               
1 26070U 00006B   25331.92062428  .00000308  00000+0  18059-3 0  9994
2 26070  71.0022 311.8169 0017600 329.4508  30.5589 14.15803457334157
TITAN 4B R/B            
1 26474U 00047B   25331.95897037  .00004123  00000+0  26652-3 0  9999
2 26474  67.9902 326.3628 0040078 162.0245 198.2332 15.08617930377563
