CCSDS_OMM_VERS = 2.0
CREATION_DATE  = 
ORIGINATOR     = 

OBJECT_NAME    = ORBVIEW 2 (SEASTAR)
OBJECT_ID      = 1997-037A
CENTER_NAME    = EARTH
REF_FRAME      = TEME
TIME_SYSTEM    = UTC
MEAN_ELEMENT_THEORY = SGP/SGP4

EPOCH          = 2025-11-27T20:36:36.301536
MEAN_MOTION    = 14.35399727
ECCENTRICITY   = .00023857
INCLINATION    = 98.8451
RA_OF_ASC_NODE = 128.5593
ARG_OF_PERICENTER = 26.0106
MEAN_ANOMALY   = 334.1198

EPHEMERIS_TYPE = 0
CLASSIFICATION_TYPE = U
NORAD_CAT_ID   = 24883
ELEMENT_SET_NO = 999
REV_AT_EPOCH   = 49386
BSTAR          = .13900659E-3
MEAN_MOTION_DOT = .352E-5
MEAN_MOTION_DDOT = 0

CCSDS_OMM_VERS = 2.0
CREATION_DATE  = 
ORIGINATOR     = 

OBJECT_NAME    = SL-16 R/B
OBJECT_ID      = 1998-043G
CENTER_NAME    = EARTH
REF_FRAME      = TEME
TIME_SYSTEM    = UTC
MEAN_ELEMENT_THEORY = SGP/SGP4

EPOCH          = 2025-11-27T20:28:44.916960
MEAN_MOTION    = 14.26019937
ECCENTRICITY   = .00090524
INCLINATION    = 98.8102
RA_OF_ASC_NODE = 279.5899
ARG_OF_PERICENTER = 314.8477
MEAN_ANOMALY   = 45.1967

EPHEMERIS_TYPE = 0
CLASSIFICATION_TYPE = U
NORAD_CAT_ID   = 25400
ELEMENT_SET_NO = 999
REV_AT_EPOCH   = 42447
BSTAR          = .63427302E-4
MEAN_MOTION_DOT = .106E-5
MEAN_MOTION_DDOT = 0

CCSDS_OMM_VERS = 2.0
CREATION_DATE  = 
ORIGINATOR     = 

OBJECT_NAME    = SL-16 R/B
OBJECT_ID      = 1998-045B
CENTER_NAME    = EARTH
REF_FRAME      = TEME
TIME_SYSTEM    = UTC
MEAN_ELEMENT_THEORY = SGP/SGP4

EPOCH          = 2025-11-27T22:21:29.700864
MEAN_MOTION    = 14.16172203
ECCENTRICITY   = .00078216
INCLINATION    = 71.0127
RA_OF_ASC_NODE = 35.5680
ARG_OF_PERICENTER = 198.0267
MEAN_ANOMALY   = 162.0580

EPHEMERIS_TYPE = 0
CLASSIFICATION_TYPE = U
NORAD_CAT_ID   = 25407
ELEMENT_SET_NO = 999
REV_AT_EPOCH   = 41269
BSTAR          = .17921395E-3
MEAN_MOTION_DOT = .307E-5
MEAN_MOTION_DDOT = 0

CCSDS_OMM_VERS = 2.0
CREATION_DATE  = 
ORIGINATOR     = 

OBJECT_NAME    = ISS (ZARYA)
OBJECT_ID      = 1998-067A
CENTER_NAME    = EARTH
REF_FRAME      = TEME
TIME_SYSTEM    = UTC
MEAN_ELEMENT_THEORY = SGP/SGP4

EPOCH          = 2025-11-27T21:34:59.940768
MEAN_MOTION    = 15.49155559
ECCENTRICITY   = .00038682
INCLINATION    = 51.6314
RA_OF_ASC_NODE = 215.9428
ARG_OF_PERICENTER = 177.5993
MEAN_ANOMALY   = 182.5015

EPHEMERIS_TYPE = 0
CLASSIFICATION_TYPE = U
NORAD_CAT_ID   = 25544
ELEMENT_SET_NO = 999
REV_AT_EPOCH   = 54055
BSTAR          = .80752527E-4
MEAN_MOTION_DOT = .4025E-4
MEAN_MOTION_DDOT = 0

CCSDS_OMM_VERS = 2.0
CREATION_DATE  = 
ORIGINATOR     = 

OBJECT_NAME    = CZ-4B R/B
OBJECT_ID      = 1999-025C
CENTER_NAME    = EARTH
REF_FRAME      = TEME
TIME_SYSTEM    = UTC
MEAN_ELEMENT_THEORY = SGP/SGP4

EPOCH          = 2025-11-27T21:14:40.034112
MEAN_MOTION    = 14.18238038
ECCENTRICITY   = .00360441
INCLINATION    = 98.6791
RA_OF_ASC_NODE = 13.4959
ARG_OF_PERICENTER = 277.8699
MEAN_ANOMALY   = 255.3465

EPHEMERIS_TYPE = 0
CLASSIFICATION_TYPE = U
NORAD_CAT_ID   = 25732
ELEMENT_SET_NO = 999
REV_AT_EPOCH   = 37373
BSTAR          = .66361835E-4
MEAN_MOTION_DOT = .94E-6
MEAN_MOTION_DDOT = 0

CCSDS_OMM_VERS = 2.0
CREATION_DATE  = 
ORIGINATOR     = 

OBJECT_NAME    = OKEAN-O
OBJECT_ID      = 1999-039A
CENTER_NAME    = EARTH
REF_FRAME      = TEME
TIME_SYSTEM    = UTC
MEAN_ELEMENT_THEORY = SGP/SGP4

EPOCH          = 2025-11-27T22:00:36.124128
MEAN_MOTION    = 14.80122470
ECCENTRICITY   = .00009932
INCLINATION    = 97.9623
RA_OF_ASC_NODE = 27.7457
ARG_OF_PERICENTER = 72.0153
MEAN_ANOMALY   = 288.1167

EPHEMERIS_TYPE = 0
CLASSIFICATION_TYPE = U
NORAD_CAT_ID   = 25860
ELEMENT_SET_NO = 999
REV_AT_EPOCH   = 41933
BSTAR          = .12534074E-3
MEAN_MOTION_DOT = .899E-5
MEAN_MOTION_DDOT = 0

CCSDS_OMM_VERS = 2.0
CREATION_DATE  = 
ORIGINATOR     = 

OBJECT_NAME    = SL-16 R/B
OBJECT_ID      = 1999-039B
CENTER_NAME    = EARTH
REF_FRAME      = TEME
TIME_SYSTEM    = UTC
MEAN_ELEMENT_THEORY = SGP/SGP4

EPOCH          = 2025-11-27T17:22:18.107616
MEAN_MOTION    = 14.81552908
ECCENTRICITY   = .00138681
INCLINATION    = 98.0147
RA_OF_ASC_NODE = 25.8727
ARG_OF_PERICENTER = 224.5649
MEAN_ANOMALY   = 135.4449

EPHEMERIS_TYPE = 0
CLASSIFICATION_TYPE = U
NORAD_CAT_ID   = 25861
ELEMENT_SET_NO = 999
REV_AT_EPOCH   = 42176
BSTAR          = .97985868E-4
MEAN_MOTION_DOT = .716E-5
MEAN_MOTION_DDOT = 0

CCSDS_OMM_VERS = 2.0
CREATION_DATE  = 
ORIGINATOR     = 

OBJECT_NAME    = DELTA 2 R/B
OBJECT_ID      = 1999-041E
CENTER_NAME    = EARTH
REF_FRAME      = TEME
TIME_SYSTEM    = UTC
MEAN_ELEMENT_THEORY = SGP/SGP4

EPOCH          = 2025-11-27T18:31:39.929952
MEAN_MOTION    = 14.11341757
ECCENTRICITY   = .05048964
INCLINATION    = 51.7622
RA_OF_ASC_NODE = 348.1935
ARG_OF_PERICENTER = 47.6586
MEAN_ANOMALY   = 316.5982

EPHEMERIS_TYPE = 0
CLASSIFICATION_TYPE = U
NORAD_CAT_ID   = 25876
ELEMENT_SET_NO = 999
REV_AT_EPOCH   = 34863
BSTAR          = .18656431E-3
MEAN_MOTION_DOT = .91E-5
MEAN_MOTION_DDOT = 0

CCSDS_OMM_VERS = 2.0
CREATION_DATE  = 
ORIGINATOR     = 

OBJECT_NAME    = HELIOS 1B
OBJECT_ID      = 1999-064A
CENTER_NAME    = EARTH
REF_FRAME      = TEME
TIME_SYSTEM    = UTC
MEAN_ELEMENT_THEORY = SGP/SGP4

EPOCH          = 2025-11-27T14:21:26.691840
MEAN_MOTION    = 14.87186225
ECCENTRICITY   = .00023148
INCLINATION    = 98.1748
RA_OF_ASC_NODE = 225.8156
ARG_OF_PERICENTER = 62.5499
MEAN_ANOMALY   = 297.5951

EPHEMERIS_TYPE = 0
CLASSIFICATION_TYPE = U
NORAD_CAT_ID   = 25977
ELEMENT_SET_NO = 999
REV_AT_EPOCH   = 67008
BSTAR          = .28178226E-3
MEAN_MOTION_DOT = .2477E-4
MEAN_MOTION_DDOT = 0

CCSDS_OMM_VERS = 2.0
CREATION_DATE  = 
ORIGINATOR     = 

OBJECT_NAME    = TERRA
OBJECT_ID      = 1999-068A
CENTER_NAME    = EARTH
REF_FRAME      = TEME
TIME_SYSTEM    = UTC
MEAN_ELEMENT_THEORY = SGP/SGP4

EPOCH          = 2025-11-28T00:27:24.158304
MEAN_MOTION    = 14.60926655
ECCENTRICITY   = .00032351
INCLINATION    = 97.9769
RA_OF_ASC_NODE = 24.2419
ARG_OF_PERICENTER = 127.7202
MEAN_ANOMALY   = 348.0137

EPHEMERIS_TYPE = 0
CLASSIFICATION_TYPE = U
NORAD_CAT_ID   = 25994
ELEMENT_SET_NO = 999
REV_AT_EPOCH   = 38023
BSTAR          = .13127442E-3
MEAN_MOTION_DOT = .598E-5
MEAN_MOTION_DDOT = 0

CCSDS_OMM_VERS = 2.0
CREATION_DATE  = 
ORIGINATOR     = 

OBJECT_NAME    = SL-16 R/B
OBJECT_ID      = 2000-006B
CENTER_NAME    = EARTH
REF_FRAME      = TEME
TIME_SYSTEM    = UTC
MEAN_ELEMENT_THEORY = SGP/SGP4

EPOCH          = 2025-11-27T22:05:41.937792
MEAN_MOTION    = 14.15803457
ECCENTRICITY   = .00176001
INCLINATION    = 71.0022
RA_OF_ASC_NODE = 311.8169
ARG_OF_PERICENTER = 329.4508
MEAN_ANOMALY   = 30.5589

EPHEMERIS_TYPE = 0
CLASSIFICATION_TYPE = U
NORAD_CAT_ID   = 26070
ELEMENT_SET_NO = 999
REV_AT_EPOCH   = 33415
BSTAR          = .18058799E-3
MEAN_MOTION_DOT = .308E-5
MEAN_MOTION_DDOT = 0

CCSDS_OMM_VERS = 2.0
CREATION_DATE  = 
ORIGINATOR     = 

OBJECT_NAME    = TITAN 4B R/B
OBJECT_ID      = 2000-047B
CENTER_NAME    = EARTH
REF_FRAME      = TEME
TIME_SYSTEM    = UTC
MEAN_ELEMENT_THEORY = SGP/SGP4

EPOCH          = 2025-11-27T23:00:55.039968
MEAN_MOTION    = 15.08617930
ECCENTRICITY   = .00400783
INCLINATION    = 67.9902
RA_OF_ASC_NODE = 326.3628
ARG_OF_PERICENTER = 162.0245
MEAN_ANOMALY   = 198.2332

EPHEMERIS_TYPE = 0
CLASSIFICATION_TYPE = U
NORAD_CAT_ID   = 26474
ELEMENT_SET_NO = 999
REV_AT_EPOCH   = 37756
BSTAR          = .26651541E-3
MEAN_MOTION_DOT = .4123E-4
MEAN_MOTION_DDOT = 0

